SKYKRAFT-1A             
1 55054U 23001AX  26068.71064616  .00008177  00000+0  30069-3 0  9991
2 55054  97.3349 127.6290 0011277 121.5092 238.7251 15.28083228176529
STARLINK-35761          
1 66961U 25288C   26068.24377298  .00040508  00000+0  14731-2 0  9991
2 66961  43.0012  25.5874 0001115 282.5954  77.4773 15.27587608 15228
